{
  "type": "FeatureCollection",
  "features": [
    {
      "type": "Feature",
      "properties": {
        "norad_id": 40889,
        "name": "GSAT0205 (GALILEO 9)",
        "group": "galileo",
        "lat": 33.49827317549686,
        "lon": 19.263408593064764,
        "alt_km": 23220.741925607254,
        "timestamp": "2025-12-09T09:46:47.908207+00:00",
        "meta_object_name": "GSAT0205 (GALILEO 9)",
        "meta_object_id": "2015-045A",
        "meta_epoch": "2025-12-06T20:05:28.161600",
        "meta_mean_motion": 1.70472973,
        "meta_eccentricity": 0.00059315,
        "meta_inclination": 55.0055,
        "meta_ra_of_asc_node": 226.9215,
        "meta_arg_of_pericenter": 39.3036,
        "meta_mean_anomaly": 320.836,
        "meta_ephemeris_type": 0,
        "meta_classification_type": "U",
        "meta_norad_cat_id": 40889,
        "meta_element_set_no": 999,
        "meta_rev_at_epoch": 6373,
        "meta_bstar": 0,
        "meta_mean_motion_dot": 2.8e-07,
        "meta_mean_motion_ddot": 0,
        "tle_line1": "1 40889U 15045A   25340.83713150  .00000028  00000+0  00000+0 0  9994",
        "tle_line2": "2 40889  55.0055 226.9215 0005931  39.3036 320.8360  1.70472973 63731"
      },
      "geometry": {
        "type": "Point",
        "coordinates": [
          19.263408593064764,
          33.49827317549686
        ]
      }
    },
    {
      "type": "Feature",
      "properties": {
        "norad_id": 40890,
        "name": "GSAT0206 (GALILEO 10)",
        "group": "galileo",
        "lat": 1.7158917928506687,
        "lon": -131.94355431676317,
        "alt_km": 23213.21067851327,
        "timestamp": "2025-12-09T09:46:47.908220+00:00",
        "meta_object_name": "GSAT0206 (GALILEO 10)",
        "meta_object_id": "2015-045B",
        "meta_epoch": "2025-12-08T05:32:31.943328",
        "meta_mean_motion": 1.70473105,
        "meta_eccentricity": 0.0003529,
        "meta_inclination": 55.0039,
        "meta_ra_of_asc_node": 226.878,
        "meta_arg_of_pericenter": 31.5182,
        "meta_mean_anomaly": 328.5941,
        "meta_ephemeris_type": 0,
        "meta_classification_type": "U",
        "meta_norad_cat_id": 40890,
        "meta_element_set_no": 999,
        "meta_rev_at_epoch": 6378,
        "meta_bstar": 0,
        "meta_mean_motion_dot": 1.8e-07,
        "meta_mean_motion_ddot": 0,
        "tle_line1": "1 40890U 15045B   25342.23092527  .00000018  00000+0  00000+0 0  9999",
        "tle_line2": "2 40890  55.0039 226.8780 0003529  31.5182 328.5941  1.70473105 63781"
      },
      "geometry": {
        "type": "Point",
        "coordinates": [
          -131.94355431676317,
          1.7158917928506687
        ]
      }
    },
    {
      "type": "Feature",
      "properties": {
        "norad_id": 41174,
        "name": "GSAT0209 (GALILEO 12)",
        "group": "galileo",
        "lat": -54.177691995676504,
        "lon": -2.7455174194644387,
        "alt_km": 23228.60613337707,
        "timestamp": "2025-12-09T09:46:47.908231+00:00",
        "meta_object_name": "GSAT0209 (GALILEO 12)",
        "meta_object_id": "2015-079A",
        "meta_epoch": "2025-12-08T09:34:38.512704",
        "meta_mean_motion": 1.70474355,
        "meta_eccentricity": 0.00023972,
        "meta_inclination": 55.7104,
        "meta_ra_of_asc_node": 106.5001,
        "meta_arg_of_pericenter": 353.8677,
        "meta_mean_anomaly": 6.0907,
        "meta_ephemeris_type": 0,
        "meta_classification_type": "U",
        "meta_norad_cat_id": 41174,
        "meta_element_set_no": 999,
        "meta_rev_at_epoch": 6152,
        "meta_bstar": 0,
        "meta_mean_motion_dot": 1e-07,
        "meta_mean_motion_ddot": 0,
        "tle_line1": "1 41174U 15079A   25342.39905686  .00000010  00000+0  00000+0 0  9990",
        "tle_line2": "2 41174  55.7104 106.5001 0002397 353.8677   6.0907  1.70474355 61526"
      },
      "geometry": {
        "type": "Point",
        "coordinates": [
          -2.7455174194644387,
          -54.177691995676504
        ]
      }
    },
    {
      "type": "Feature",
      "properties": {
        "norad_id": 41175,
        "name": "GSAT0208 (GALILEO 11)",
        "group": "galileo",
        "lat": 43.3377788803302,
        "lon": -113.57364175580952,
        "alt_km": 23219.593216401987,
        "timestamp": "2025-12-09T09:46:47.908243+00:00",
        "meta_object_name": "GSAT0208 (GALILEO 11)",
        "meta_object_id": "2015-079B",
        "meta_epoch": "2025-12-07T10:42:17.817120",
        "meta_mean_motion": 1.70474201,
        "meta_eccentricity": 0.00018539,
        "meta_inclination": 55.7081,
        "meta_ra_of_asc_node": 106.5234,
        "meta_arg_of_pericenter": 5.1909,
        "meta_mean_anomaly": 354.7678,
        "meta_ephemeris_type": 0,
        "meta_classification_type": "U",
        "meta_norad_cat_id": 41175,
        "meta_element_set_no": 999,
        "meta_rev_at_epoch": 6192,
        "meta_bstar": 0,
        "meta_mean_motion_dot": 8e-08,
        "meta_mean_motion_ddot": 0,
        "tle_line1": "1 41175U 15079B   25341.44603955  .00000008  00000+0  00000+0 0  9997",
        "tle_line2": "2 41175  55.7081 106.5234 0001853   5.1909 354.7678  1.70474201 61922"
      },
      "geometry": {
        "type": "Point",
        "coordinates": [
          -113.57364175580952,
          43.3377788803302
        ]
      }
    },
    {
      "type": "Feature",
      "properties": {
        "norad_id": 41549,
        "name": "GSAT0211 (GALILEO 14)",
        "group": "galileo",
        "lat": 37.36964441147419,
        "lon": -100.96185808879916,
        "alt_km": 23207.790649080835,
        "timestamp": "2025-12-09T09:46:47.908255+00:00",
        "meta_object_name": "GSAT0211 (GALILEO 14)",
        "meta_object_id": "2016-030A",
        "meta_epoch": "2025-12-07T13:40:58.264320",
        "meta_mean_motion": 1.70472997,
        "meta_eccentricity": 0.00040128,
        "meta_inclination": 55.154,
        "meta_ra_of_asc_node": 226.9659,
        "meta_arg_of_pericenter": 14.4678,
        "meta_mean_anomaly": 345.6377,
        "meta_ephemeris_type": 0,
        "meta_classification_type": "U",
        "meta_norad_cat_id": 41549,
        "meta_element_set_no": 999,
        "meta_rev_at_epoch": 5940,
        "meta_bstar": 0,
        "meta_mean_motion_dot": 2.3e-07,
        "meta_mean_motion_ddot": 0,
        "tle_line1": "1 41549U 16030A   25341.57011880  .00000023  00000+0  00000+0 0  9991",
        "tle_line2": "2 41549  55.1540 226.9659 0004012  14.4678 345.6377  1.70472997 59400"
      },
      "geometry": {
        "type": "Point",
        "coordinates": [
          -100.96185808879916,
          37.36964441147419
        ]
      }
    },
    {
      "type": "Feature",
      "properties": {
        "norad_id": 41550,
        "name": "GSAT0210 (GALILEO 13)",
        "group": "galileo",
        "lat": -50.32967969382168,
        "lon": 103.99127943348513,
        "alt_km": 23223.857961604142,
        "timestamp": "2025-12-09T09:46:47.908266+00:00",
        "meta_object_name": "GSAT0210 (GALILEO 13)",
        "meta_object_id": "2016-030B",
        "meta_epoch": "2025-12-07T19:51:37.971648",
        "meta_mean_motion": 1.70473554,
        "meta_eccentricity": 0.00013454,
        "meta_inclination": 55.1532,
        "meta_ra_of_asc_node": 226.9569,
        "meta_arg_of_pericenter": 243.5769,
        "meta_mean_anomaly": 116.5022,
        "meta_ephemeris_type": 0,
        "meta_classification_type": "U",
        "meta_norad_cat_id": 41550,
        "meta_element_set_no": 999,
        "meta_rev_at_epoch": 5940,
        "meta_bstar": 0,
        "meta_mean_motion_dot": 2.1e-07,
        "meta_mean_motion_ddot": 0,
        "tle_line1": "1 41550U 16030B   25341.82752282  .00000021  00000+0  00000+0 0  9997",
        "tle_line2": "2 41550  55.1532 226.9569 0001345 243.5769 116.5022  1.70473554 59407"
      },
      "geometry": {
        "type": "Point",
        "coordinates": [
          103.99127943348513,
          -50.32967969382168
        ]
      }
    },
    {
      "type": "Feature",
      "properties": {
        "norad_id": 41859,
        "name": "GSAT0207 (GALILEO 15)",
        "group": "galileo",
        "lat": 53.868839234876866,
        "lon": 177.29608158067455,
        "alt_km": 23218.585752799736,
        "timestamp": "2025-12-09T09:46:47.908278+00:00",
        "meta_object_name": "GSAT0207 (GALILEO 15)",
        "meta_object_id": "2016-069A",
        "meta_epoch": "2025-12-06T22:22:57.829728",
        "meta_mean_motion": 1.70474256,
        "meta_eccentricity": 0.00021753,
        "meta_inclination": 55.3787,
        "meta_ra_of_asc_node": 106.4111,
        "meta_arg_of_pericenter": 324.2379,
        "meta_mean_anomaly": 35.7022,
        "meta_ephemeris_type": 0,
        "meta_classification_type": "U",
        "meta_norad_cat_id": 41859,
        "meta_element_set_no": 999,
        "meta_rev_at_epoch": 5612,
        "meta_bstar": 0,
        "meta_mean_motion_dot": 7e-08,
        "meta_mean_motion_ddot": 0,
        "tle_line1": "1 41859U 16069A   25340.93261377  .00000007  00000+0  00000+0 0  9996",
        "tle_line2": "2 41859  55.3787 106.4111 0002175 324.2379  35.7022  1.70474256 56122"
      },
      "geometry": {
        "type": "Point",
        "coordinates": [
          177.29608158067455,
          53.868839234876866
        ]
      }
    }
  ]
}